{
  "type": "FeatureCollection",
  "features": [
    {
      "type": "Feature",
      "properties": {
        "norad_id": 34389,
        "name": "COSMOS 2251 DEB",
        "group": "cosmos-2251-debris",
        "lat": -65.12534255185571,
        "lon": -162.95762619676051,
        "alt_km": 748.6868307657796,
        "timestamp": "2025-12-20T14:38:02.363258+00:00",
        "meta_object_name": "COSMOS 2251 DEB",
        "meta_object_id": "1993-036QE",
        "meta_epoch": "2025-12-20T02:11:19.577184",
        "meta_mean_motion": 14.41549017,
        "meta_eccentricity": 0.00292453,
        "meta_inclination": 74.0181,
        "meta_ra_of_asc_node": 236.1826,
        "meta_arg_of_pericenter": 346.9054,
        "meta_mean_anomaly": 132.7507,
        "meta_ephemeris_type": 0,
        "meta_classification_type": "U",
        "meta_norad_cat_id": 34389,
        "meta_element_set_no": 999,
        "meta_rev_at_epoch": 88118,
        "meta_bstar": 0.00023609856,
        "meta_mean_motion_dot": 7.45e-06,
        "meta_mean_motion_ddot": 0,
        "tle_line1": "1 34389U 93036QE  25354.09119881  .00000745  00000+0  23610-3 0  9994",
        "tle_line2": "2 34389  74.0181 236.1826 0029245 346.9054 132.7507 14.41549017881188"
      },
      "geometry": {
        "type": "Point",
        "coordinates": [
          -162.95762619676051,
          -65.12534255185571
        ]
      }
    },
    {
      "type": "Feature",
      "properties": {
        "norad_id": 34396,
        "name": "COSMOS 2251 DEB",
        "group": "cosmos-2251-debris",
        "lat": 62.52308793951951,
        "lon": 142.07294335780702,
        "alt_km": 639.2883192438185,
        "timestamp": "2025-12-20T14:38:02.363269+00:00",
        "meta_object_name": "COSMOS 2251 DEB",
        "meta_object_id": "1993-036QM",
        "meta_epoch": "2025-12-19T10:59:32.903808",
        "meta_mean_motion": 14.74585964,
        "meta_eccentricity": 0.0005236,
        "meta_inclination": 74.0293,
        "meta_ra_of_asc_node": 110.9085,
        "meta_arg_of_pericenter": 149.4452,
        "meta_mean_anomaly": 286.5385,
        "meta_ephemeris_type": 0,
        "meta_classification_type": "U",
        "meta_norad_cat_id": 34396,
        "meta_element_set_no": 999,
        "meta_rev_at_epoch": 88445,
        "meta_bstar": 0.0013068,
        "meta_mean_motion_dot": 8.688e-05,
        "meta_mean_motion_ddot": 0,
        "tle_line1": "1 34396U 93036QM  25353.45801972  .00008688  00000+0  13068-2 0  9999",
        "tle_line2": "2 34396  74.0293 110.9085 0005236 149.4452 286.5385 14.74585964884450"
      },
      "geometry": {
        "type": "Point",
        "coordinates": [
          142.07294335780702,
          62.52308793951951
        ]
      }
    },
    {
      "type": "Feature",
      "properties": {
        "norad_id": 34400,
        "name": "COSMOS 2251 DEB",
        "group": "cosmos-2251-debris",
        "lat": 4.115399070338811,
        "lon": -175.30302009424543,
        "alt_km": 398.15975403040375,
        "timestamp": "2025-12-20T14:38:02.363279+00:00",
        "meta_object_name": "COSMOS 2251 DEB",
        "meta_object_id": "1993-036QR",
        "meta_epoch": "2025-12-19T02:24:10.765440",
        "meta_mean_motion": 15.56249276,
        "meta_eccentricity": 0.00035402,
        "meta_inclination": 73.9631,
        "meta_ra_of_asc_node": 9.2408,
        "meta_arg_of_pericenter": 249.8598,
        "meta_mean_anomaly": 110.2237,
        "meta_ephemeris_type": 0,
        "meta_classification_type": "U",
        "meta_norad_cat_id": 34400,
        "meta_element_set_no": 999,
        "meta_rev_at_epoch": 90073,
        "meta_bstar": 0.0028361475,
        "meta_mean_motion_dot": 0.00204436,
        "meta_mean_motion_ddot": 0,
        "tle_line1": "1 34400U 93036QR  25353.10012460  .00204436  00000+0  28361-2 0  9994",
        "tle_line2": "2 34400  73.9631   9.2408 0003540 249.8598 110.2237 15.56249276900734"
      },
      "geometry": {
        "type": "Point",
        "coordinates": [
          -175.30302009424543,
          4.115399070338811
        ]
      }
    },
    {
      "type": "Feature",
      "properties": {
        "norad_id": 34409,
        "name": "COSMOS 2251 DEB",
        "group": "cosmos-2251-debris",
        "lat": -29.772421318406924,
        "lon": 121.29820199716652,
        "alt_km": 755.6507676233077,
        "timestamp": "2025-12-20T14:38:02.363289+00:00",
        "meta_object_name": "COSMOS 2251 DEB",
        "meta_object_id": "1993-036RA",
        "meta_epoch": "2025-12-20T06:01:18.579936",
        "meta_mean_motion": 14.58044298,
        "meta_eccentricity": 0.00802011,
        "meta_inclination": 74.0635,
        "meta_ra_of_asc_node": 292.5717,
        "meta_arg_of_pericenter": 4.9327,
        "meta_mean_anomaly": 123.7099,
        "meta_ephemeris_type": 0,
        "meta_classification_type": "U",
        "meta_norad_cat_id": 34409,
        "meta_element_set_no": 999,
        "meta_rev_at_epoch": 89302,
        "meta_bstar": 0.00018554849,
        "meta_mean_motion_dot": 8.6e-06,
        "meta_mean_motion_ddot": 0,
        "tle_line1": "1 34409U 93036RA  25354.25090949  .00000860  00000+0  18555-3 0  9998",
        "tle_line2": "2 34409  74.0635 292.5717 0080201   4.9327 123.7099 14.58044298893024"
      },
      "geometry": {
        "type": "Point",
        "coordinates": [
          121.29820199716652,
          -29.772421318406924
        ]
      }
    },
    {
      "type": "Feature",
      "properties": {
        "norad_id": 34410,
        "name": "COSMOS 2251 DEB",
        "group": "cosmos-2251-debris",
        "lat": -4.633735712036172,
        "lon": 66.31763513150761,
        "alt_km": 512.7591870914675,
        "timestamp": "2025-12-20T14:38:02.363299+00:00",
        "meta_object_name": "COSMOS 2251 DEB",
        "meta_object_id": "1993-036RB",
        "meta_epoch": "2025-12-20T03:26:51.790272",
        "meta_mean_motion": 15.19578498,
        "meta_eccentricity": 0.00215962,
        "meta_inclination": 73.7374,
        "meta_ra_of_asc_node": 245.9556,
        "meta_arg_of_pericenter": 86.1624,
        "meta_mean_anomaly": 69.5955,
        "meta_ephemeris_type": 0,
        "meta_classification_type": "U",
        "meta_norad_cat_id": 34410,
        "meta_element_set_no": 999,
        "meta_rev_at_epoch": 89886,
        "meta_bstar": 0.0014542699,
        "meta_mean_motion_dot": 0.00031235,
        "meta_mean_motion_ddot": 0,
        "tle_line1": "1 34410U 93036RB  25354.14365498  .00031235  00000+0  14543-2 0  9994",
        "tle_line2": "2 34410  73.7374 245.9556 0021596  86.1624  69.5955 15.19578498898866"
      },
      "geometry": {
        "type": "Point",
        "coordinates": [
          66.31763513150761,
          -4.633735712036172
        ]
      }
    },
    {
      "type": "Feature",
      "properties": {
        "norad_id": 34412,
        "name": "COSMOS 2251 DEB",
        "group": "cosmos-2251-debris",
        "lat": 59.68592990752362,
        "lon": 100.30951605623153,
        "alt_km": 687.2447284325999,
        "timestamp": "2025-12-20T14:38:02.363310+00:00",
        "meta_object_name": "COSMOS 2251 DEB",
        "meta_object_id": "1993-036RD",
        "meta_epoch": "2025-12-20T04:09:43.065504",
        "meta_mean_motion": 14.47216204,
        "meta_eccentricity": 0.01874651,
        "meta_inclination": 73.9488,
        "meta_ra_of_asc_node": 310.6286,
        "meta_arg_of_pericenter": 43.9727,
        "meta_mean_anomaly": 317.6172,
        "meta_ephemeris_type": 0,
        "meta_classification_type": "U",
        "meta_norad_cat_id": 34412,
        "meta_element_set_no": 999,
        "meta_rev_at_epoch": 87758,
        "meta_bstar": 0.0010437522,
        "meta_mean_motion_dot": 4.727e-05,
        "meta_mean_motion_ddot": 0,
        "tle_line1": "1 34412U 93036RD  25354.17341511  .00004727  00000+0  10438-2 0  9994",
        "tle_line2": "2 34412  73.9488 310.6286 0187465  43.9727 317.6172 14.47216204877587"
      },
      "geometry": {
        "type": "Point",
        "coordinates": [
          100.30951605623153,
          59.68592990752362
        ]
      }
    },
    {
      "type": "Feature",
      "properties": {
        "norad_id": 34413,
        "name": "COSMOS 2251 DEB",
        "group": "cosmos-2251-debris",
        "lat": 73.10358707989467,
        "lon": 0.07487652363096849,
        "alt_km": 828.8183363967091,
        "timestamp": "2025-12-20T14:38:02.363320+00:00",
        "meta_object_name": "COSMOS 2251 DEB",
        "meta_object_id": "1993-036RE",
        "meta_epoch": "2025-12-19T03:37:01.824384",
        "meta_mean_motion": 14.29145308,
        "meta_eccentricity": 0.00909812,
        "meta_inclination": 74.0307,
        "meta_ra_of_asc_node": 253.2338,
        "meta_arg_of_pericenter": 328.5293,
        "meta_mean_anomaly": 182.5817,
        "meta_ephemeris_type": 0,
        "meta_classification_type": "U",
        "meta_norad_cat_id": 34413,
        "meta_element_set_no": 999,
        "meta_rev_at_epoch": 87222,
        "meta_bstar": 0.0011272931,
        "meta_mean_motion_dot": 2.965e-05,
        "meta_mean_motion_ddot": 0,
        "tle_line1": "1 34413U 93036RE  25353.15071556  .00002965  00000+0  11273-2 0  9991",
        "tle_line2": "2 34413  74.0307 253.2338 0090981 328.5293 182.5817 14.29145308872223"
      },
      "geometry": {
        "type": "Point",
        "coordinates": [
          0.07487652363096849,
          73.10358707989467
        ]
      }
    }
  ]
}